{
  "type": "FeatureCollection",
  "features": [
    {
      "type": "Feature",
      "properties": {
        "norad_id": 41822,
        "name": "FENGYUN 1C DEB",
        "group": "fengyun-1c-debris",
        "lat": -78.47873826901684,
        "lon": 102.59174948717694,
        "alt_km": 795.8779808671788,
        "timestamp": "2025-12-13T10:41:26.056557+00:00",
        "meta_object_name": "FENGYUN 1C DEB",
        "meta_object_id": "1999-025EXZ",
        "meta_epoch": "2025-12-12T16:32:17.997216",
        "meta_mean_motion": 14.24797665,
        "meta_eccentricity": 0.00553812,
        "meta_inclination": 98.7325,
        "meta_ra_of_asc_node": 52.899,
        "meta_arg_of_pericenter": 220.6088,
        "meta_mean_anomaly": 139.0954,
        "meta_ephemeris_type": 0,
        "meta_classification_type": "U",
        "meta_norad_cat_id": 41822,
        "meta_element_set_no": 999,
        "meta_rev_at_epoch": 47372,
        "meta_bstar": 0.0024811627,
        "meta_mean_motion_dot": 5.837e-05,
        "meta_mean_motion_ddot": 0,
        "tle_line1": "1 41822U 99025EXZ 25346.68909719  .00005837  00000+0  24812-2 0  9992",
        "tle_line2": "2 41822  98.7325  52.8990 0055381 220.6088 139.0954 14.24797665473729"
      },
      "geometry": {
        "type": "Point",
        "coordinates": [
          102.59174948717694,
          -78.47873826901684
        ]
      }
    },
    {
      "type": "Feature",
      "properties": {
        "norad_id": 41823,
        "name": "FENGYUN 1C DEB",
        "group": "fengyun-1c-debris",
        "lat": -14.552824347981085,
        "lon": 53.04811386724576,
        "alt_km": 837.0779984131332,
        "timestamp": "2025-12-13T10:41:26.056567+00:00",
        "meta_object_name": "FENGYUN 1C DEB",
        "meta_object_id": "1999-025EYA",
        "meta_epoch": "2025-12-12T16:12:14.135040",
        "meta_mean_motion": 14.23518723,
        "meta_eccentricity": 0.00546695,
        "meta_inclination": 98.7205,
        "meta_ra_of_asc_node": 50.0012,
        "meta_arg_of_pericenter": 228.413,
        "meta_mean_anomaly": 131.2356,
        "meta_ephemeris_type": 0,
        "meta_classification_type": "U",
        "meta_norad_cat_id": 41823,
        "meta_element_set_no": 999,
        "meta_rev_at_epoch": 47357,
        "meta_bstar": 0.002316982,
        "meta_mean_motion_dot": 5.311e-05,
        "meta_mean_motion_ddot": 0,
        "tle_line1": "1 41823U 99025EYA 25346.67516360  .00005311  00000+0  23170-2 0  9991",
        "tle_line2": "2 41823  98.7205  50.0012 0054669 228.4130 131.2356 14.23518723473572"
      },
      "geometry": {
        "type": "Point",
        "coordinates": [
          53.04811386724576,
          -14.552824347981085
        ]
      }
    },
    {
      "type": "Feature",
      "properties": {
        "norad_id": 41824,
        "name": "FENGYUN 1C DEB",
        "group": "fengyun-1c-debris",
        "lat": -31.097096835780228,
        "lon": -133.85214208067248,
        "alt_km": 777.1627263370738,
        "timestamp": "2025-12-13T10:41:26.056578+00:00",
        "meta_object_name": "FENGYUN 1C DEB",
        "meta_object_id": "1999-025EYB",
        "meta_epoch": "2025-12-12T21:53:41.923392",
        "meta_mean_motion": 14.24166073,
        "meta_eccentricity": 0.00574087,
        "meta_inclination": 98.7318,
        "meta_ra_of_asc_node": 50.9372,
        "meta_arg_of_pericenter": 226.8452,
        "meta_mean_anomaly": 132.792,
        "meta_ephemeris_type": 0,
        "meta_classification_type": "U",
        "meta_norad_cat_id": 41824,
        "meta_element_set_no": 999,
        "meta_rev_at_epoch": 47362,
        "meta_bstar": 0.0024130782,
        "meta_mean_motion_dot": 5.613e-05,
        "meta_mean_motion_ddot": 0,
        "tle_line1": "1 41824U 99025EYB 25346.91229078  .00005613  00000+0  24131-2 0  9999",
        "tle_line2": "2 41824  98.7318  50.9372 0057408 226.8452 132.7920 14.24166073473626"
      },
      "geometry": {
        "type": "Point",
        "coordinates": [
          -133.85214208067248,
          -31.097096835780228
        ]
      }
    },
    {
      "type": "Feature",
      "properties": {
        "norad_id": 41825,
        "name": "FENGYUN 1C DEB",
        "group": "fengyun-1c-debris",
        "lat": 74.03649446217536,
        "lon": 23.925282731004334,
        "alt_km": 832.3401016298321,
        "timestamp": "2025-12-13T10:41:26.056588+00:00",
        "meta_object_name": "FENGYUN 1C DEB",
        "meta_object_id": "1999-025EYC",
        "meta_epoch": "2025-12-09T03:32:17.389536",
        "meta_mean_motion": 14.25046246,
        "meta_eccentricity": 0.00555494,
        "meta_inclination": 98.7437,
        "meta_ra_of_asc_node": 52.192,
        "meta_arg_of_pericenter": 230.7898,
        "meta_mean_anomaly": 128.8342,
        "meta_ephemeris_type": 0,
        "meta_classification_type": "U",
        "meta_norad_cat_id": 41825,
        "meta_element_set_no": 999,
        "meta_rev_at_epoch": 47297,
        "meta_bstar": 0.002021998,
        "meta_mean_motion_dot": 4.772e-05,
        "meta_mean_motion_ddot": 0,
        "tle_line1": "1 41825U 99025EYC 25343.14742349  .00004772  00000+0  20220-2 0  9993",
        "tle_line2": "2 41825  98.7437  52.1920 0055549 230.7898 128.8342 14.25046246472975"
      },
      "geometry": {
        "type": "Point",
        "coordinates": [
          23.925282731004334,
          74.03649446217536
        ]
      }
    },
    {
      "type": "Feature",
      "properties": {
        "norad_id": 41826,
        "name": "FENGYUN 1C DEB",
        "group": "fengyun-1c-debris",
        "lat": 44.71985770090477,
        "lon": 44.47893103616663,
        "alt_km": 848.7668448206614,
        "timestamp": "2025-12-13T10:41:26.056598+00:00",
        "meta_object_name": "FENGYUN 1C DEB",
        "meta_object_id": "1999-025EYD",
        "meta_epoch": "2025-12-10T21:45:22.076064",
        "meta_mean_motion": 14.23727663,
        "meta_eccentricity": 0.0055686,
        "meta_inclination": 98.7332,
        "meta_ra_of_asc_node": 50.7137,
        "meta_arg_of_pericenter": 228.7501,
        "meta_mean_anomaly": 130.8873,
        "meta_ephemeris_type": 0,
        "meta_classification_type": "U",
        "meta_norad_cat_id": 41826,
        "meta_element_set_no": 999,
        "meta_rev_at_epoch": 47334,
        "meta_bstar": 0.0022505,
        "meta_mean_motion_dot": 5.181e-05,
        "meta_mean_motion_ddot": 0,
        "tle_line1": "1 41826U 99025EYD 25344.90650551  .00005181  00000+0  22505-2 0  9995",
        "tle_line2": "2 41826  98.7332  50.7137 0055686 228.7501 130.8873 14.23727663473345"
      },
      "geometry": {
        "type": "Point",
        "coordinates": [
          44.47893103616663,
          44.71985770090477
        ]
      }
    },
    {
      "type": "Feature",
      "properties": {
        "norad_id": 41827,
        "name": "FENGYUN 1C DEB",
        "group": "fengyun-1c-debris",
        "lat": -53.85146303111902,
        "lon": 68.80953011356722,
        "alt_km": 817.1038670118742,
        "timestamp": "2025-12-13T10:41:26.056608+00:00",
        "meta_object_name": "FENGYUN 1C DEB",
        "meta_object_id": "1999-025EYE",
        "meta_epoch": "2025-12-10T15:33:15.246432",
        "meta_mean_motion": 14.25246458,
        "meta_eccentricity": 0.00581722,
        "meta_inclination": 98.7428,
        "meta_ra_of_asc_node": 53.8617,
        "meta_arg_of_pericenter": 219.5184,
        "meta_mean_anomaly": 140.1747,
        "meta_ephemeris_type": 0,
        "meta_classification_type": "U",
        "meta_norad_cat_id": 41827,
        "meta_element_set_no": 999,
        "meta_rev_at_epoch": 47301,
        "meta_bstar": 0.0026161949,
        "meta_mean_motion_dot": 6.222e-05,
        "meta_mean_motion_ddot": 0,
        "tle_line1": "1 41827U 99025EYE 25344.64809313  .00006222  00000+0  26162-2 0  9999",
        "tle_line2": "2 41827  98.7428  53.8617 0058172 219.5184 140.1747 14.25246458473015"
      },
      "geometry": {
        "type": "Point",
        "coordinates": [
          68.80953011356722,
          -53.85146303111902
        ]
      }
    },
    {
      "type": "Feature",
      "properties": {
        "norad_id": 41828,
        "name": "FENGYUN 1C DEB",
        "group": "fengyun-1c-debris",
        "lat": -80.54730739194102,
        "lon": -135.12536754342293,
        "alt_km": 728.5078557647339,
        "timestamp": "2025-12-13T10:41:26.056618+00:00",
        "meta_object_name": "FENGYUN 1C DEB",
        "meta_object_id": "1999-025EYF",
        "meta_epoch": "2025-12-12T21:53:16.595232",
        "meta_mean_motion": 14.51712308,
        "meta_eccentricity": 0.00386571,
        "meta_inclination": 98.9224,
        "meta_ra_of_asc_node": 114.9693,
        "meta_arg_of_pericenter": 175.708,
        "meta_mean_anomaly": 184.4452,
        "meta_ephemeris_type": 0,
        "meta_classification_type": "U",
        "meta_norad_cat_id": 41828,
        "meta_element_set_no": 999,
        "meta_rev_at_epoch": 47466,
        "meta_bstar": 0.0065433125,
        "meta_mean_motion_dot": 0.00026579,
        "meta_mean_motion_ddot": 0,
        "tle_line1": "1 41828U 99025EYF 25346.91199763  .00026579  00000+0  65433-2 0  9994",
        "tle_line2": "2 41828  98.9224 114.9693 0038657 175.7080 184.4452 14.51712308474666"
      },
      "geometry": {
        "type": "Point",
        "coordinates": [
          -135.12536754342293,
          -80.54730739194102
        ]
      }
    }
  ]
}